BusinessName,AddressLine2,AddressLine3,PostCode,Longitude,Latitude,Cost,Quality,Food Type 1,Food Type 2,Food Type 3
2 Go,397 Dumbarton Road,Glasgow,G11 6BE,-4.308613,55.870617,,,,,
200 St Vincent Street,200 St Vincent Street,Glasgow,G2 5SG,-4.260957,55.86229,,,,,
279 Cafe Bistro,279 Dumbarton Road,Glasgow,G11 6AB,-4.303939,55.870516,,,,,
32nd Signal Regiment (v),21 Jardine Street,Glasgow,G20 6JU,-4.277246,55.877088,,,,,
916 - Diner,916 Sauchiehall Street,Glasgow,G3 7TF,-4.284479,55.865774,,,,,
Abercromby Cafe,168 Abercromby Street,Glasgow,G40 2RZ,-4.229148,55.852688,,,,,
A-Cakes,39 Milnbank Street,Glasgow,G31 3AQ,-4.221675,55.864803,,,,,
Ad Lib,33 Ingram Street,Glasgow,G1 1HA,-4.242358,55.859008,,,,,
Agra Restaurant,995 Crow Road,Glasgow,G13 1JP,-4.32204,55.893903,,,,,
AJ's Sandwich Shop,14 Tollcross Road,Glasgow,G31 4XD,-4.19669,55.850836,,,,,
Akbars Balti Restaurant,573 Sauchiehall Street,Glasgow,G3 7PQ,-4.273083,55.866048,,,,,
Alba Cafe,481 Great Western Road,Glasgow,G12 8HL,-4.282144,55.875281,,,,,
Alba Catering Ltd,2 Haghill Road,Glasgow,G31 3SR,-4.202495,55.858569,,,,,
Albacore,200 Carlisle Street,Glasgow,,-4.242509842,55.85779953,,,,,
Alberto's,506 Alexandra Parade,Glasgow,G31 3BQ,-4.218008,55.863548,,,,,
Alishan Tandoori,250 Battlefield Road,Glasgow,G42 9HU,-4.262139,55.824889,,,,,
All In One,12 Marne Street,Glasgow,G31 2TD,-4.212686,55.8627,,,,,
Alla Turca Restuarant,192 Pitt Street,Glasgow,G2 4DY,-4.26452,55.865289,,,,,
Al's Diner,70 Cathedral Street,Glasgow,G4 0RN,,,,,,,
AM PM,16 Killermont Street,Glasgow,G2 3NW,-4.25203,55.865428,,,,,
Amalfi Pizzeria,148 West Nile Street,Glasgow,G1 2RQ,-4.253893,55.863929,,,,,
Amarone,4 Nelson Mandela Place,Glasgow,,-4.2535556,55.86203936,,,,,
Amber Regent,50 West Regent Street,Glasgow,G2 2RA,-4.256413,55.86329,,,,,
Amber Restaurant,132 Byres Road,Glasgow,G12 8TD,-4.295156,55.873646,,,,,
Amber's Cafe,18 Balmore Road,Glasgow,G22 6RN,-4.255088,55.884273,,,,,
Amore Ristorante,30 Ingram Street,Glasgow,G1 1EZ,-4.242543,55.859445,,,,,
Amros Tandoori,1228 Royston Road,Glasgow,G33 1EX,-4.193152,55.878212,,,,,
An Clachan Cafe Ltd,5 La Belle Place,Glasgow,G3 7LH,-4.27954,55.866593,,,,,
Anarkali Restaurant,531 Victoria Road,Glasgow,G42 8BH,-4.265291,55.83407,,,,,
Anatolia,140 St Vincent Street,Glasgow,G2 5LA,-4.25852,55.861876,,,,,
Andell's Restauarnt And Tearoom,140 Sauchiehall Street,Glasgow,G2 3DH,-4.258023,55.865157,,,,,
Anne's Snack Bar,183 Fordneuk Street,Glasgow,G40 3SA,-4.218836,55.849486,,,,,
Another Piece,387 Great Western Road,Glasgow,G4 9HY,-4.277598,55.873819,,,,,
Anti Pasti,305 Sauchiehall Street,Glasgow,G2 3HQ,-4.263947,55.865326,,,,,
Aramark,200 Glentanar Road,Glasgow,G22 7XS,-4.259779,55.895646,,,,,
Arisaig,71 Albion Street,Glasgow,G1 1NY,-4.243579,55.858573,,,,,
Aroma,5 Cadogan Street,Glasgow,G2 6QE,-4.260169,55.859446,,,,,
Arta,13 Walls Street,Glasgow,G1 1PA,-4.24317,55.857852,,,,,
Artisan Roast,15 Gibson Street,Glasgow,G12 8NU,-4.282448,55.8723,,,,,
Arty Tarts,3 McLaren Crescent,Glasgow,G20 0LD,-4.285638,55.895285,,,,,
Ashoka Ashton Lane,19 Ashton Lane,Glasgow,G12 8SJ,-4.292992,55.87463,,,,,
Ashoka At The Quay,3 Springfield Quay,Glasgow,G5 8NP,-4.274804,55.855303,,,,,
Ashoka South Side,268 Clarkston Road,Glasgow,G44 3EA,-4.269606,55.812187,,,,,
Ashoka West End,1284 Argyle Street,Glasgow,G3 8AB,-4.290045,55.866929,,,,,
Asia Style,185 St Georges Road,Glasgow,G3 6JD,-4.269402,55.869792,,,,,
Asian Gourmet,17 West Princes Street,Glasgow,G4 9BS,-4.270026,55.870077,,,,,
Ask Italian,3 Port Dundas Place,Glasgow,G2 3LD,-4.253253,55.865298,,,,,
Assams,57 West Regent Street,Glasgow,G2 2AE,-4.256581,55.862882,,,,,
Assissi House,41 Easterhill Street,Glasgow,,-4.17422278,55.84143226,,,,,
Athena Greek Taverna,1116 Argyle Street,Glasgow,G3 8TD,-4.284857,55.865138,,,,,
Athena Greek Taverna,99 Hope Street,Glasgow,G2 6LL,-4.259448,55.86079,,,,,
Atrium,121 University Avenue,Glasgow,G12 8SP,-4.293732,55.874158,,,,,
Atrium Coffee House,58 Cresswell Street,Glasgow,G12 8AP,-4.291748,55.876576,,,,,
Aubergine,356 Victoria Road,Glasgow,G42 8YW,-4.264837,55.837512,,,,,
Aulds,55 St Enoch Square,Glasgow,,-4.25558113,55.85737272,,,,,
Auntie Anne's,763 Barrhead Road,Glasgow,,,,,,,,
Auntie M's,2 Clouston Street,Glasgow,G20 8QS,-4.2847,55.880698,,,,,
Avenue G Cafe,291 Byres Road,Glasgow,G12 8TL,-4.293342,55.875953,,,,,
Azure (Hospitality),150 Edmiston Drive,Glasgow,G51 2XD,-4.308669,55.852452,,,,,
Azzurro,91 Cambridge Street,Glasgow,G3 6RU,-4.259871,55.866965,,,,,
Babu Bombay Street Kitchen,186 West Regent Street,Glasgow,G2 4RU,-4.261774,55.863964,,,,,
Babylon Cafe,9 Clyde Place,Glasgow,G5 8AA,,,,,,,
Back 2 Angie's,330 Duke Street,Glasgow,G31 1QZ,-4.222143,55.858171,,,,,
Baguette Express,297 Provan Walk,Glasgow,G34 9DY,-4.138074,55.871218,,,,,
Ballito Bay,16 St Andrews Street,Glasgow,G1 5PD,-4.24419,55.855308,,,,,
Bank Street Bar And Kitchen,54 Bank Street,Glasgow,G12 8LZ,-4.284265,55.8733,,,,,
Bar Soba,11 Mitchell Lane,Glasgow,G1 3LX,-4.255473,55.859487,,,,,
Bar Soba Byres Road,122 Byres Road,Glasgow,G12 8TB,-4.295826,55.873085,,,,,
Bar Ten,10 Mitchell Lane,Glasgow,G1 3NU,-4.255247,55.859995,,,,,
Barbarossa Restaurant,3 Clarkston Road,Glasgow,G44 4EF,-4.261659,55.817726,,,,,
Barca Tapas And Cava Bar,48 Buchanan Street,Glasgow,G1 3JN,-4.253456,55.859156,,,,,
Barolo Grill,94 Mitchell Street,Glasgow,G1 3NQ,-4.255247,55.859995,,,,,
Battlefield Rest,55 Battlefield Road,Glasgow,G42 9JL,-4.266264,55.827186,,,,,
Bean Machine,32 Albion Street,Glasgow,G1 1LH,-4.244412,55.857775,,,,,
Beanscene,1365 Argyle Street,Glasgow,G3 8AF,-4.29177,55.867723,,,,,
Beanscene,19 Skirving Street,Glasgow,G41 3AB,-4.280532,55.829798,,,,,
Beanscene,110 Battlefield Road,Glasgow,G42 9JT,-4.265146,55.826083,,,,,
Beanscene Ltd,40 Woodlands Road,Glasgow,G3 6UR,-4.272108,55.868241,,,,,
Beechwood Tavern,164 Ardmay Crescent,Glasgow,G44 4PP,-4.247809,55.823354,,,,,
Bella Fresca,2093 Paisley Road West,Glasgow,G52 3JH,-4.353494,55.845706,,,,,
Bella Italia,96 Hope Street,Glasgow,G2 6PH,-4.258318,55.860873,,,,,
Bella Napoli,85 Kilmarnock Road,Glasgow,G41 3YR,-4.282917,55.828531,,,,,
Bella Vita,597 Mosspark Boulevard,Glasgow,G52 1SB,-4.333458,55.845127,,,,,
Bellgrove Hotel,607 Gallowgate,Glasgow,G40 2PG,-4.222186,55.854997,,,,,
Bensons Cafe,1300 Duke Street,Glasgow,G31 4EB,-4.199841,55.853449,,,,,
"Benson's Pantry (Inshops Unit 6, 7, 8)",1300 Duke Street,Glasgow,G31 4EB,-4.199841,55.853449,,,,,
Best Chippy,55 Mount Annan Drive,Glasgow,G44 4RX,-4.25474,55.823937,,,,,
Bibi's Cantina,599 Dumbarton Road,Glasgow,G11 6HY,-4.317637,55.870501,,,,,
Biggar's Cafe,273 Sauchiehall Street,Glasgow,G2 3HQ,-4.263947,55.865326,,,,,
Bikram Yoga Southside (and Juice Bar),32 Eastwood Avenue,Glasgow,G41 3NS,-4.286243,55.827805,,,,,
Biscuit,17 Skirving Street,Glasgow,G41 3AB,-4.280532,55.829798,,,,,
Bites 'N' Pieces,99 Rockfield Road,Glasgow,G21 3DY,-4.203947,55.889549,,,,,
Black Sheep Bistro,10 Clarendon Street,Glasgow,G20 7QD,-4.268495,55.872603,,,,,
Blackhill Bowling Club,20 Tay Crescent,Glasgow,G33 2BQ,-4.189009,55.871356,,,,,
Bluebird Cafe,510 Cathcart Road,Glasgow,G42 7BX,-4.25734,55.837119,,,,,
Bombay Blues,41 Hope Street,Glasgow,G2 6AE,-4.259536,55.859557,,,,,
Bonbons And Buttercream,7 Dryburgh Gardens,Glasgow,G20 6BT,-4.277453,55.87899,,,,,
Boyd Catering (Brookfield Construction Site),1345 Govan Road,Glasgow,G51 4TF,-4.337594,55.863985,,,,,
Boyd's,2121 Paisley Road West,Glasgow,G52 3JL,-4.35467,55.845612,,,,,
Bradfords,245 Sauchiehall Street,Glasgow,G2 3EZ,-4.262562,55.865145,,,,,
Brambles Catering,188 Riverford Road,Glasgow,G43 2DE,-4.288925,55.821005,,,,,
Bread + Butter,74 Buchanan Street,Glasgow,G1 3HA,-4.25397,55.860018,,,,,
Bread Meats Bread,104 St Vincent Street,Glasgow,G2 5UB,-4.255533,55.861625,,,,,
Brel,37 Ashton Lane,Glasgow,G12 8SJ,-4.292992,55.87463,,,,,
Brian Maule At Chardon D'Or,172 West Regent Street,Glasgow,,-4.26149352,55.86369468,,,,,
Broad Street Cafe,60 Broad Street,Glasgow,G40 2QN,-4.223796,55.850457,,,,,
Brooklands Café,1632 Great Western Road,Glasgow,G13 1HH,-4.324127,55.890026,,,,,
Broomton Community Shop,42 Broomton Road,Glasgow,G21 3RU,-4.203822,55.89693,,,,,
Brown's Bar and Brasserie,1 George Square,Glasgow,G2 1DY,-4.250847,55.860453,,,,,
Brutti Compadres,35 Virginia Street,Glasgow,G1 1TN,-4.250545,55.858544,,,,,
Buchanan Lodge,163 Wardie Road,Glasgow,G34 9EG,-4.120015,55.867172,,,,,
Bull Leader,55 Union Street,Glasgow,G1 3RB,-4.257325,55.859184,,,,,
Buon Giorno,1012 Pollokshaws Road,Glasgow,G41 2HG,-4.278617,55.832008,,,,,
Burger King,102 Union Street,Glasgow,G1 3QW,-4.256555,55.859962,,,,,
Burger King,6 Allerdyce Court,Glasgow,G15 6SA,-4.376618,55.902864,,,,,
Burger King,1 Springfield Quay,Glasgow,G5 8NP,-4.274804,55.855303,,,,,
Burger King,55 St Enoch Square,Glasgow,G1 4BW,-4.254458,55.857412,,,,,
Burger Meats Bun,48 West Regent Street,Glasgow,G2 2RA,-4.256413,55.86329,,,,,
Burrell Collection (The Burrell Cafe/Restaurant),2060 Pollokshaws Road,Glasgow,G43 1AT,-4.303363,55.823261,,,,,
Buzzy Wares,48 Buchanan Street,Glasgow,G1 3JN,-4.253456,55.859156,,,,,
Byblos Cafe,6 Park Road,Glasgow,G4 9JG,-4.278703,55.873853,,,,,
Cafe,220 High Street,Glasgow,G4 0QW,-4.239688,55.860657,,,,,
Cafe 13,794 Govan Road,Glasgow,G51 2YL,-4.310615,55.862895,,,,,
Cafe Absolute,161 Byres Road,Glasgow,G12 8TS,-4.295756,55.873787,,,,,
Cafe Amalfi,19 Carmunnock Road,Glasgow,G44 4TZ,-4.256752,55.825042,,,,,
Cafe Andaluz,15 St Vincent Place,Glasgow,G1 2DW,-4.252437,55.860864,,,,,
Cafe Andaluz,2 Cresswell Lane,Glasgow,G12 8AA,-4.292252,55.875911,,,,,
Cafe Asia,1359 Barrhead Road,Glasgow,G53 7DA,-4.362746,55.821792,,,,,
Cafe Avanti,26 Merkland Street,Glasgow,G11 6DB,-4.30912,55.870275,,,,,
Cafe B Encore At Blair Court,100 Borron Street,Glasgow,G4 9XG,-4.24913,55.87526,,,,,
Cafe Bella Turca,563 Sauchiehall Street,Glasgow,G3 7PQ,-4.273083,55.866048,,,,,
Cafe Bungalow,1363 Dumbarton Road,Glasgow,G14 9UZ,-4.343177,55.875742,,,,,
Cafe Castello Coffee House,61 Old Castle Road,Glasgow,G44 5TG,-4.257964,55.816491,,,,,
Cafe Cherubini,360 Great Western Road,Glasgow,G4 9HT,-4.276352,55.873833,,,,,
Cafe Circa,322 Crow Road,Glasgow,G11 7HS,-4.321842,55.877747,,,,,
Cafe Cosmo,12 Rose Street,Glasgow,G3 6QZ,-4.260859,55.865545,,,,,
Cafe Di Sorrento,470 Crow Road,Glasgow,G11 7DR,-4.325861,55.88132,,,,,
Cafe Euro,549 Duke Street,Glasgow,G31 1DL,-4.217936,55.858642,,,,,
Cafe Express,140 Sauchiehall Street,Glasgow,G2 3DH,-4.258023,55.865157,,,,,
Cafe Fornette,140 Sauchiehall Street,Glasgow,G2 3DH,-4.258023,55.865157,,,,,
Cafe Gandolfi,64 Albion Street,Glasgow,G1 1NY,-4.243579,55.858573,,,,,
Cafe Go Go,5 Cresswell Lane,Glasgow,,,,,,,,
Cafe Hula,321 Hope Street,Glasgow,G2 3PT,-4.256986,55.866281,,,,,
Cafe In Victorian Market,233 London Road,Glasgow,G40 1PE,-4.237417,55.853948,,,,,
Cafe India,29 Albion Street,Glasgow,G1 1LH,-4.244412,55.857775,,,,,
Cafe JJ,180 Dumbarton Road,Glasgow,G11 6XE,-4.29999,55.870769,,,,,
Cafe Katia,100 Borron Street,Glasgow,,-4.24894571,55.87401512,,,,,
Cafe La Padella,124 Woodlands Road,Glasgow,G3 6HB,-4.273911,55.869277,,,,,
Cafe Lavita,202 Gallowgate,Glasgow,G1 5DS,-4.238092,55.855419,,,,,
Cafe Lovestruck,751 Pollokshaws Road,Glasgow,G41 2AX,-4.271722,55.835345,,,,,
Cafe Ludovic,11 Lochleven Road,Glasgow,G42 9JU,-4.265209,55.825507,,,,,
Cafe Massimo,1009 Cathcart Road,Glasgow,G42 9XJ,-4.259091,55.827659,,,,,
Cafe Melegrano,105 Albert Drive,Glasgow,G41 2SU,-4.270098,55.841459,,,,,
Cafe Momentum (Scottish Enterprise),50 Waterloo Street,Glasgow,G2 6HQ,-4.261071,55.86067,,,,,
Cafe Noor,49 Kilmarnock Road,Glasgow,G41 3YN,-4.281972,55.829295,,,,,
Cafe Nye,20 India Street,Glasgow,,,,,,,,
Cafe Octavia,40 Edington Street,Glasgow,G4 9RD,-4.259395,55.872537,,,,,
Cafe Olive,513 Amulree Street,Glasgow,G32 7TW,-4.165765,55.842891,,,,,
Cafe Oliver,430 Dumbarton Road,Glasgow,G11 6SB,-4.310294,55.870936,,,,,
Cafe Osa,217 Hope Street,Glasgow,G2 2UW,-4.257905,55.863667,,,,,
Cafe Pearce,860 Govan Road,Glasgow,G51 3UU,-4.312603,55.863523,,,,,
Cafe Phoenix Ltd,262 Woodlands Road,Glasgow,G3 6NE,-4.277611,55.871869,,,,,
Cafe Ritazza,79 Gordon Street,Glasgow,G1 3SQ,-4.258211,55.859302,,,,,
Cafe Ritazza,1 Scottish Exhibition Centre,Glasgow,G3 8YW,-4.288154,55.86087,,,,,
Cafe Roots,63 North Frederick Street,Glasgow,G1 2BS,-4.248413,55.862025,,,,,
Cafe Roots (City Of Glasgow College),230 Cathedral Street,Glasgow,G1 2TG,-4.246071,55.863255,,,,,
Cafe Rouge,20 Royal Exchange Square,Glasgow,G1 3AB,-4.252561,55.86052,,,,,
Cafe Salma,523 Sauchiehall Street,Glasgow,G3 7PQ,-4.273083,55.866048,,,,,
Cafe Select,220 Buchanan Street,Glasgow,,,,,,,,
Cafe Serena,330 Maxwell Road,Glasgow,G41 1PJ,-4.273486,55.844506,,,,,
Cafe Solo,100 Minard Road,Glasgow,G41 2DL,-4.282445,55.833825,,,,,
Cafe Source Too,32 Hughenden Road,Glasgow,G12 9XP,-4.305399,55.881939,,,,,
Cafe Taste,1515 Dumbarton Road,Glasgow,G14 9XQ,-4.34962,55.878388,,,,,
Cafe Tiki,17 Gullane Street,Glasgow,G11 6AN,-4.306866,55.870551,,,,,
Cafe W,176 Argyle Street,Glasgow,G2 8BT,-4.256303,55.858645,,,,,
Cafe Wander,1032 Argyle Street,Glasgow,G3 8LX,-4.282007,55.864229,,,,,
Cafe Wander,110 West George Street,Glasgow,G2 1PS,-4.256015,55.862488,,,,,
Cafe Zecchino,331 Cumbernauld Road,Glasgow,G31 3LP,-4.206015,55.862874,,,,,
Cafe Zeus,98 Bath Street,Glasgow,G2 2EN,-4.258163,55.864264,,,,,
Cafecart,1036 Cathcart Road,Glasgow,G42 9XW,-4.258258,55.826524,,,,,
Cafezique,66 Hyndland Street,Glasgow,G11 5PT,-4.301732,55.87293,,,,,
Caffe Coupa,115 Clarkston Road,Glasgow,G44 3BL,-4.263342,55.815906,,,,,
Caffe Italiano,220 Buchanan Street,Glasgow,,-4.252946,55.863781,,,,,
Caffe Ritazza,100 Provan Walk,Glasgow,G34 9DL,-4.136909,55.872982,,,,,
Cail Bruich,725 Great Western Road,Glasgow,G12 8QX,-4.289157,55.87738,,,,,
Cailin's Sushi,1136 Argyle Street,Glasgow,G3 8TD,-4.284857,55.865138,,,,,
Cakejoy,15 Lumsden Street,Glasgow,G3 8RQ,-4.292175,55.866727,,,,,
Cakes By Alison,2009 Paisley Road West,Glasgow,G52 3TA,-4.350899,55.845594,,,,,
Caledonia House,140 Fifty Pitches Road,Glasgow,G51 4ED,-4.322815,55.862549,,,,,
Calfe Olive Tree,140 Sauchiehall Street,Glasgow,G2 3DH,-4.258023,55.865157,,,,,
Canton Chinese Restaurant/Banana Leaf,65 Cambridge Street,Glasgow,G3 6QX,-4.260107,55.866359,,,,,
Carluccio's,7 West Nile Street,Glasgow,G1 2PR,-4.256056,55.860717,,,,,
Caroline's Catering,1500 Edinburgh Road,Glasgow,G33 4UF,-4.127546,55.857003,,,,,
Caseys Cafe,107 Elderpark Street,Glasgow,G51 3NR,-4.321496,55.859365,,,,,
CCA (Saramago Cafe),350 Sauchiehall Street,Glasgow,G2 3JD,-4.26621,55.86604,,,,,
Central Cafe,27 Saltmarket,Glasgow,G1 5NA,-4.243968,55.856166,,,,,
Chaophraya,4 Nelson Mandela Place,Glasgow,G2 1BT,-4.254092,55.862407,,,,,
Chapter House,26 Bothwell Street,Glasgow,G2 6NU,-4.259723,55.861396,,,,,
Charcoals,26 Renfield Street,Glasgow,G2 1LU,-4.256155,55.861875,,,,,
Charcoals,74 Trongate,Glasgow,G1 5EP,-4.245757,55.857275,,,,,
Charlie Rocks American Diner,337 Byres Road,Glasgow,G12 8UQ,-4.292599,55.876641,,,,,
Cheeky Charlie's,12 Gorstan Street,Glasgow,G23 5QG,-4.289668,55.899902,,,,,
Cherry And Heather Fine Food,7 North Gower Street,Glasgow,G51 1PW,-4.297263,55.851129,,,,,
Chill N Grill,966 Argyle Street,Glasgow,G3 8LU,-4.280265,55.863686,,,,,
Chilli Express,1196 Maryhill Road,Glasgow,G20 9BA,-4.284475,55.886939,,,,,
Chilli Grill,515 Sauchiehall Street,Glasgow,G3 7DL,-4.272258,55.866153,,,,,
Chillies West End,180 Woodlands Road,Glasgow,G3 6LL,-4.275699,55.870331,,,,,
China Blue,98 Renfield Street,Glasgow,G2 1NH,-4.255481,55.864026,,,,,
China Buffet King,53 Bath Street,Glasgow,G2 2DJ,-4.259844,55.861438,,,,,
China Buffet King,24 West Nile Street,Glasgow,G1 2PF,-4.255004,55.861051,,,,,
China Buffet King,345 Sauchiehall Street,Glasgow,G2 3HW,-4.265169,55.865457,,,,,
China Chef,529 Carntyne Road,Glasgow,G32 6JL,-4.1914,55.859891,,,,,
China House Restaurant,1286 Shettleston Road,Glasgow,G32 7YR,-4.164208,55.851367,,,,,
China Sea Restaurant,12 Renfield Street,Glasgow,G2 5AL,-4.256444,55.860791,,,,,
China Wok,140 Sauchiehall Street,Glasgow,G2 3DH,-4.258023,55.865157,,,,,
Chinatown Restaurant,44 New City Road,Glasgow,G4 9JT,-4.261172,55.869008,,,,,
Chinwag's Cafe,981 Tollcross Road,Glasgow,G32 8UU,-4.173803,55.844098,,,,,
Chippy Doon The Lane,23 Royal Exchange Square,Glasgow,G1 3AJ,-4.252971,55.859875,,,,,
Chiquito,40 Provan Walk,Glasgow,G34 9DL,-4.136909,55.872982,,,,,
Chiquito,4 Springfield Quay,Glasgow,G5 8NP,-4.274804,55.855303,,,,,
Chocolatte,536 Great Western Road,Glasgow,G12 8EL,-4.282872,55.875977,,,,,
Chop House Brasserie,79 Albion Street,Glasgow,G1 1LH,-4.244412,55.857775,,,,,
Chopstix,184 Argyle Street,Glasgow,G2 8HA,-4.258211,55.859302,,,,,
Chows Restaurant Ltd,98 Byres Road,Glasgow,G12 8TB,-4.295826,55.873085,,,,,
Christine's Cafe,271 Cumbernauld Road,Glasgow,G31 2UG,-4.20924,55.862528,,,,,
Chukoku China China,298 Sauchiehall Street,Glasgow,G2 3JA,-4.263684,55.865763,,,,,
Citation Taverine And Restaurant,40 Wilson Street,Glasgow,G1 1HD,-4.248389,55.858853,,,,,
Classy Snax,42 Dalsetter Avenue,Glasgow,G15 8TE,-4.368116,55.906174,,,,,
Clean Plates,10 Gairbraid Avenue,Glasgow,G20 8YA,-4.290442,55.890504,,,,,
Club Bombay,121 Main Street,Glasgow,G69 6AA,-4.109384,55.850899,,,,,
Club Tropicana,26 Cambridge Street,Glasgow,G2 3DZ,-4.259784,55.865484,,,,,
Coia's,473 Duke Street,Glasgow,G31 1RD,-4.219946,55.858588,,,,,
Comforter In The City,50 Dundas Street,Glasgow,G1 2AQ,-4.251713,55.862999,,,,,
Congratulations,1027 Shettleston Road,Glasgow,G32 7PB,-4.169989,55.851912,,,,,
Cookie Cafe,75 Lauderdale Gardens,Glasgow,G12 9QU,-4.308532,55.87788,,,,,
Cookie Scotland,72 Nithsdale Road,Glasgow,G41 2AN,-4.271241,55.836953,,,,,
Coronation Restaurant,55 Gallowgate,Glasgow,G1 5AP,-4.241699,55.85645,,,,,
Cossachok Russian Cafe Gallery,10 King Street,Glasgow,G1 5QP,-4.246851,55.85685,,,,,
Courtyard Cafe (Resource Centre),192 Southbrae Drive,Glasgow,G13 1TX,-4.346984,55.884514,,,,,
Crabshakk,1114 Argyle Street,Glasgow,G3 8TD,-4.284857,55.865138,,,,,
Cranachan,48 Buchanan Street,Glasgow,G1 3JN,-4.253456,55.859156,,,,,
Cranberrys (Glasgow) Ltd,30 Wilson Street,Glasgow,G1 1SS,-4.24667,55.858687,,,,,
Crazy Wok,173 Dumbarton Road,Glasgow,G11 6AA,-4.301502,55.870669,,,,,
Criterion Cafe,46 Gallowgate,Glasgow,G1 5AB,-4.242888,55.856284,,,,,
Crolla's Gelateria,221 Byres Road,Glasgow,G12 8UD,-4.294404,55.87499,,,,,
Cross Enterprise,11 Minerva Way,Glasgow,G3 8AU,-4.283855,55.863044,,,,,
Crown Carvery,7 Allerdyce Court,Glasgow,,-4.376204,55.902954,,,,,
Cullis Diner,202 Dumbarton Road,Glasgow,G11 6UN,-4.301203,55.871016,,,,,
Curry Karaoke Club,100 Stobcross Road,Glasgow,G3 8QQ,-4.296235,55.861861,,,,,
Cushion and Cake,35 Old Dumbarton Road,Glasgow,G3 8RD,-4.291944,55.866884,,,,,
Da Vinci's,50 Queen Street,Glasgow,G1 3DS,-4.251673,55.859261,,,,,
Daisy Cafe,431 Keppochhill Road,Glasgow,G21 1HT,-4.246321,55.876452,,,,,
Dakhin,89 Candleriggs,Glasgow,G1 1NP,-4.2458,55.858838,,,,,
D'Arcy's,48 Buchanan Street,Glasgow,G1 3JN,-4.253456,55.859156,,,,,
Daughters Cafe,1300 Duke Street,Glasgow,G31 4EB,-4.199841,55.853449,,,,,
Deborah Stein,5 Coopers Well Street,Glasgow,G11 6QE,-4.300277,55.869955,,,,,
Deco,8 Elliot Place,Glasgow,,-4.27924274,55.86093689,,,,,
Deli Bakery,Congress Road,Glasgow,G3 8YW,-4.288154,55.86087,,,,,
Deli Bean Machine,348 Byres Road,Glasgow,G12 8AP,-4.291748,55.876576,,,,,
Deli Bean Machine,180 Crown Street,Glasgow,G5 9XD,-4.25077,55.849184,,,,,
Deli Venezia Ltd,31 Gibson Street,Glasgow,G12 8NU,-4.282448,55.8723,,,,,
Delices,150 Battlefield Road,Glasgow,G42 9JT,-4.265146,55.826083,,,,,
Delightfully Delicious,80 Monreith Road,Glasgow,G43 2PE,-4.27554,55.818413,,,,,
Dell Cafe,368 Alexandra Parade,Glasgow,G31 3AU,-4.223281,55.864091,,,,,
Dewar's Cafe,1700 London Road,Glasgow,G32 8XR,-4.189046,55.841913,,,,,
Di Maggio's,21 Royal Exchange Square,Glasgow,G1 3AJ,-4.252971,55.859875,,,,,
Di Maggios Pizzeria,1040 Pollokshaws Road,Glasgow,G41 3EB,-4.279512,55.831471,,,,,
Di Maggio's Pizzeria,61 Ruthven Lane,Glasgow,G12 9BG,-4.295154,55.875506,,,,,
Di Maggio's Pronto,163 West Nile Street,Glasgow,G1 2RL,-4.254227,55.86528,,,,,
Dilhani's Home Kitchen,30 Kingsway Court,Glasgow,G14 9TJ,-4.35871,55.883804,,,,,
Din Dins,150 Balmore Road,Glasgow,G22 6LJ,-4.257303,55.887441,,,,,
Dining In At Mother India,1345 Argyle Street,Glasgow,,-4.29043502,55.86698055,,,,,
Dino's,35 Sauchiehall Street,Glasgow,G2 3AT,-4.25482,55.864209,,,,,
D'Nisi,265 Kilmarnock Road,Glasgow,G41 3JF,-4.285134,55.826315,,,,,
Dobbies Garden Centre,846 Boclair Road,Glasgow,G62 6EP,-4.286158,55.926417,,,,,
Dominos Pizza,11 Main Street,Glasgow,G69 6SG,-4.113654,55.850395,,,,,
Dougie's Kitchen,514 Tollcross Road,Glasgow,G31 4XX,-4.186874,55.847317,,,,,
Dowanvale Cafe,35 Dowanhill Street,Glasgow,G11 5QR,-4.300744,55.871636,,,,,
Dragon I,311 Hope Street,Glasgow,G2 3PT,-4.256986,55.866281,,,,,
Drake Cafe,6 Drakemire Drive,Glasgow,G44 5EL,-4.245516,55.810167,,,,,
Dream Cakes,16 Kingsbarns Drive,Glasgow,G44 4SN,-4.253857,55.822758,,,,,
Drizzle Cafe/Deli,49 Sinclair Drive,Glasgow,G42 9PR,-4.266867,55.826564,,,,,
East End Diner,12 Millerston Street,Glasgow,G31 1QE,-4.214037,55.858083,,,,,
Eastern Treats,220 Buchanan Street,Glasgow,,,,,,,,
Eastgate Bean Machine,727 London Road,Glasgow,G40 3AQ,-4.220985,55.849357,,,,,
Eat,31 Gordon Street,Glasgow,,,,,,,,
Eat Cafe,69 Kilmarnock Road,Glasgow,G41 3YR,-4.282917,55.828531,,,,,
Eats And Treats,10 Boyd Street,Glasgow,G42 8AW,-4.255423,55.83409,,,,,
Eats By Heavenly Treats,1171 Pollokshaws Road,Glasgow,G41 3NG,-4.282646,55.829903,,,,,
Elia,24 George Square,Glasgow,G2 1EG,-4.251756,55.861524,,,,,
Elior UK,33 Beardmore Way,Glasgow,G31 4BG,-4.209588,55.856276,,,,,
Emilia Cafe,86 Elderslie Street,Glasgow,G3 7AL,-4.275325,55.86393,,,,,
Enjoy Cafe,393 Great Western Road,Glasgow,G4 9HY,-4.277598,55.873819,,,,,
Epicures,159 Hyndland Road,Glasgow,G12 9JA,-4.305944,55.876832,,,,,
Esca - E2,27 Chisholm Street,Glasgow,G1 5HA,-4.245203,55.85653,,,,,
Esure,19 Cadogan Street,Glasgow,G2 6QQ,-4.261887,55.859594,,,,,
Euphorium,23 Byres Road,Glasgow,G11 5RD,-4.299312,55.870926,,,,,
Fanellis,71 Albion Street,Glasgow,G1 1NY,-4.243579,55.858573,,,,,
Fanny Trollops,1066 Argyle Street,Glasgow,G3 8LY,-4.283491,55.864741,,,,,
Favourite Cafe,1078 Shettleston Road,Glasgow,G32 7PW,-4.169985,55.851544,,,,,
Fazzi,65 Cambridge Street,Glasgow,G3 6QX,-4.260107,55.866359,,,,,
Felix And Oscar,459 Great Western Road,Glasgow,G12 8HH,-4.280988,55.874934,,,,,
Fifi And Ally,48 Buchanan Street,Glasgow,G1 3JN,-4.253456,55.859156,,,,,
Finnieston,1125 Argyle Street,Glasgow,G3 8ND,-4.283834,55.86433,,,,,
Fit Food Bistro,50 Couper Street,Glasgow,G4 0EA,-4.241922,55.868642,,,,,
Flavour Glasgow,11 Kennedy Path,Glasgow,G4 0PP,-4.243187,55.866462,,,,,
Flourish House,25 Ashley Street,Glasgow,G3 6DR,-4.272957,55.869357,,,,,
Food Fillas,243 Ingram Street,Glasgow,G1 1DA,-4.250967,55.859768,,,,,
Food To Go/Food For Thought,65 Hillhead Street,Glasgow,G12 8QF,-4.288254,55.873172,,,,,
Forbidden,96 Maxwell Street,Glasgow,G1 4AU,-4.255036,55.85635,,,,,
Forfar Avenue Care Home,60 Forfar Avenue,Glasgow,G52 3JF,-4.353857,55.843785,,,,,
Frankie And Benny's,705 Provan Walk,Glasgow,G34 9DY,-4.138074,55.871218,,,,,
Frankie And Benny's,5 Springfield Quay,Glasgow,G5 8NP,-4.274804,55.855303,,,,,
Frankie and Benny's,763 Barrhead Road,Glasgow,G53 6AG,-4.342073,55.822898,,,,,
Fratelli Sarti,42 Renfield Street,Glasgow,G2 1NF,-4.255482,55.862669,,,,,
Friends Chinese Cafe,273 High Street,Glasgow,G4 0QS,-4.23876,55.860907,,,,,
Frosoulla's,39 Sinclair Drive,Glasgow,G42 9PR,-4.266867,55.826564,,,,,
G and A McHarg Bakers,1493 Paisley Road West,Glasgow,G52 1SH,-4.332153,55.846275,,,,,
Gamba,225 West George Street,Glasgow,G2 4TY,-4.260929,55.862632,,,,,
Gambrino Pizzeria,327 Great Western Road,Glasgow,G4 9HS,-4.276506,55.873471,,,,,
Gandolfi Fish,86 Albion Street,Glasgow,G1 1NY,-4.243579,55.858573,,,,,
Gaynor's Cafe,80 Langlands Road,Glasgow,G51 3BQ,-4.315544,55.86273,,,,,
Gennaro's Fish and Chips Cafe,1556 Great Western Road,Glasgow,G13 1HJ,-4.322328,55.889358,,,,,
Georgie Porgies,195 Brand Street,Glasgow,G51 1AB,-4.298197,55.853421,,,,,
Glasvagas,111 Nelson Street,Glasgow,G5 8DZ,-4.262314,55.852918,,,,,
Go Slow Cafe,452 Victoria Road,Glasgow,G42 8YU,-4.265402,55.835973,,,,,
Golden Phoenix,631 Pollokshaws Road,Glasgow,G41 2QG,-4.268612,55.837343,,,,,
Good Luck Kid,120 Carstairs Street,Glasgow,G40 4JD,-4.221939,55.839202,,,,,
Grace And Flavour,24 Daisy Street,Glasgow,G42 8JL,-4.258728,55.836006,,,,,
Grand Ole Opry,4 Govan Road,Glasgow,G51 1HS,-4.279178,55.854143,,,,,
Granny Bells (Rachels),1320 Shettleston Road,Glasgow,G32 7YS,-4.163439,55.851344,,,,,
Great Clydesdale Food Co @ Film City,401 Govan Road,Glasgow,G51 2QJ,-4.300017,55.856631,,,,,
Green Chilli Cafe,1293 Argyle Street,Glasgow,G3 8TL,-4.290304,55.866438,,,,,
Green City Canteen,23 Fleming Street,Glasgow,G31 1PQ,-4.207895,55.85769,,,,,
Grosvenor Cinema (Grosvenor Cafe),36 Ashton Lane,Glasgow,G12 8SJ,-4.292992,55.87463,,,,,
Guido's Fast Foods,74 Coustonholm Road,Glasgow,G43 1TZ,-4.286365,55.825519,,,,,
Gusto and Relish,729 Pollokshaws Road,Glasgow,G41 2AA,-4.270716,55.835902,,,,,
Handmade Burger Co,763 Barrhead Road,Glasgow,G53 6AG,-4.342073,55.822898,,,,,
Hard Rock Cafe (Glasgow),179 Buchanan Street,Glasgow,G1 2JZ,-4.253564,55.862947,,,,,
Harry Ramsdens,251 Paisley Road,Glasgow,G5 8RA,-4.272067,55.853574,,,,,
Hasta Manana,111 Gorbals Street,Glasgow,G5 9DW,-4.25294,55.851337,,,,,
Haze Lounge,625 Great Western Road,Glasgow,G12 8RE,-4.286737,55.876733,,,,,
Healy's,80 Mitchell Street,Glasgow,G1 3NA,-4.255247,55.859995,,,,,
Heera Indian Restaurant,15 Kent Road,Glasgow,G3 7EH,-4.271744,55.864464,,,,,
Henley's Byre,43 Byres Road,Glasgow,G11 5RG,-4.298699,55.871387,,,,,
Hillhead Book Club,17 Vinicombe Street,Glasgow,G12 8BE,-4.290655,55.877298,,,,,
Ho Wah,95 Kilmarnock Road,Glasgow,,-4.28372544,55.82835009,,,,,
Ho Wong Restaurant,82 York Street,Glasgow,G2 8LE,-4.262318,55.858481,,,,,
Hong Kong Express,437 Sauchiehall Street,Glasgow,G2 3LG,-4.269064,55.865924,,,,,
Ho's Chinese Restaurant,16 Kings Place,Glasgow,G22 6LL,-4.260762,55.892743,,,,,
Host Contract Management,21 Tyndrum Street,Glasgow,G4 0JY,-4.251831,55.869458,,,,,
Hot Flame World Buffet,500 Corselet Road,Glasgow,G53 7RN,-4.35056,55.805839,,,,,
Hot Masala,123 Old Castle Road,Glasgow,G44 5TJ,-4.257262,55.814841,,,,,
House For An Art Lover,10 Dumbreck Road,Glasgow,G41 5BW,-4.313765,55.847332,,,,,
Hugh's,21 Buchanan Street,Glasgow,G1 3HL,-4.254903,55.859309,,,,,
Hummingbird,186 Bath Street,Glasgow,G2 4HG,-4.262878,55.864807,,,,,
Hundred And Nine,109 Bell Street,Glasgow,G4 0TQ,-4.242103,55.857638,,,,,
I Cafe,215 Great Western Road,Glasgow,G4 9EB,-4.273215,55.872417,,,,,
I Cafe,250 Woodlands Road,Glasgow,G3 6ND,-4.277107,55.871447,,,,,
I Chai,1015 Crow Road,Glasgow,G13 1JP,-4.32204,55.893903,,,,,
Ichiban,50 Queen Street,Glasgow,G1 3DS,-4.251673,55.859261,,,,,
Ichiban Noodle Cafe,184 Dumbarton Road,Glasgow,G11 6UN,-4.301203,55.871016,,,,,
Ikafe,138 Nithsdale Road,Glasgow,G41 5RB,-4.275057,55.83913,,,,,
Il Dente,118 Stockwell Street,Glasgow,G1 4LW,-4.250571,55.855128,,,,,
Il Pavone,48 Buchanan Street,Glasgow,G1 3JN,-4.253456,55.859156,,,,,
In House Cafe,36 Washington Street,Glasgow,G3 8AZ,-4.26918,55.858328,,,,,
India Quay,181 Finnieston Street,Glasgow,G3 8HE,-4.281259,55.858014,,,,,
Indian Cottage,42 Albion Street,Glasgow,G1 1LH,-4.244412,55.857775,,,,,
Indian Cottage,120 Dumbarton Road,Glasgow,G11 6NY,-4.298685,55.870596,,,,,
Indian Gallery,450 Sauchiehall Street,Glasgow,G2 3JD,-4.26621,55.86604,,,,,
Indian Ocean,2 Balornock Road,Glasgow,G21 3UH,-4.217832,55.889057,,,,,
Indian Orchard Restaurant,315 Dumbarton Road,Glasgow,G11 6AL,-4.306264,55.870643,,,,,
Ingram Wynd,58 Ingram Street,Glasgow,G1 1EX,-4.243602,55.859525,,,,,
Inn Deep,445 Great Western Road,Glasgow,G12 8HH,-4.280988,55.874934,,,,,
Italian Bistro,1051 Great Western Road,Glasgow,G12 0XP,-4.310922,55.884459,,,,,
Italian Kitchen,64 Ingram Street,Glasgow,G1 1EX,-4.243602,55.859525,,,,,
Ivory Hotel,4 Camphill Avenue,Glasgow,G41 3AY,-4.274163,55.82819,,,,,
Jack McPhee,261 Hope Street,Glasgow,G2 3PS,-4.257408,55.865024,,,,,
Jacker De Viande,111 West Regent Street,Glasgow,G2 2RU,-4.259735,55.863265,,,,,
Jaconelli's Cafe,570 Maryhill Road,Glasgow,G20 7EE,-4.272905,55.880512,,,,,
Jamie T's Coffee House,465 Clarkston Road,Glasgow,G44 3LW,-4.270929,55.8097,,,,,
Jamie's Italian,1 George Square,Glasgow,G2 1DY,-4.250847,55.860453,,,,,
Java Cafe,130 Rottenrow,Glasgow,G4 0GE,-4.243053,55.862474,,,,,
Jaybe's Bar-B-Que Co,585 Duke Street,Glasgow,G31 1PY,-4.215778,55.858636,,,,,
Jellyhill,195 Hyndland Road,Glasgow,G12 9HT,-4.305528,55.876022,,,,,
Jewson Cafe,85 David Street,Glasgow,G40 2UH,-4.217727,55.852463,,,,,
JJ Diner,1353 Dumbarton Road,Glasgow,G14 9UZ,-4.343177,55.875742,,,,,
Jules,328 Argyle Street,Glasgow,G2 8LY,-4.261711,55.859031,,,,,
Juliane,117 Moss Side Road,Glasgow,G41 3UP,-4.285862,55.832467,,,,,
Jurassic Jungle,29 Saracen Street,Glasgow,G22 5HT,-4.25528,55.879308,,,,,
K Street Cafe,1 Kay Street,Glasgow,G21 1JY,-4.230098,55.884036,,,,,
K V T A Bath Street,104 Bath Street,Glasgow,G2 2EN,-4.258163,55.864264,,,,,
Ka Ka Lok,175 St Georges Road,Glasgow,G3 6JD,-4.269402,55.869792,,,,,
Kabana Restaurant,64 Seaward Street,Glasgow,G41 1HL,-4.277816,55.852982,,,,,
Kama Sutra Restaurant,331 Sauchiehall Street,Glasgow,G2 3HW,-4.265169,55.865457,,,,,
Kandy Krunch,54 Calton Entry,Glasgow,G40 2SB,-4.236991,55.854603,,,,,
Kebabish Grill,323 Victoria Road,Glasgow,G42 7SA,-4.263854,55.838186,,,,,
Kember And Jones,134 Byres Road,Glasgow,G12 8TD,-4.295156,55.873646,,,,,
Kenburn Social Club,43 Vulcan Street,Glasgow,G21 4BP,-4.232732,55.881185,,,,,
Kennishead Tenants Hall,10 Kennishead Avenue,Glasgow,G46 8RA,-4.323675,55.813163,,,,,
Kentucky Fried Chicken,20 Cuthbertson Street,Glasgow,G42 7RJ,-4.265492,55.839171,,,,,
Kentucky Fried Chicken,5 Darnley Mains Road,Glasgow,G53 7RH,-4.340714,55.805056,,,,,
Kentucky Fried Chicken,178 Argyle Street,Glasgow,G2 8BT,-4.256303,55.858645,,,,,
Ketchup / Radio / Nude,46 Ashton Lane,Glasgow,G12 8SJ,-4.292992,55.87463,,,,,
KFC,10 Westhorn Drive,Glasgow,G32 8YX,-4.169764,55.835838,,,,,
KFC,382 Helen Street,Glasgow,G51 3AD,-4.319128,55.853684,,,,,
KFC (Great Britain) Ltd,981 Gallowgate,Glasgow,G31 4BW,-4.212689,55.85489,,,,,
Khublai Khan,26 Candleriggs,Glasgow,G1 1LD,-4.245418,55.857757,,,,,
Kimbles,55 St Enoch Square,Glasgow,G1 4BW,-4.254458,55.857412,,,,,
Kings,64 Renfield Street,Glasgow,G2 1NQ,-4.255608,55.863475,,,,,
King's Lodge,91 Union Street,Glasgow,G1 3TA,-4.257374,55.860297,,,,,
King's Theatre,297 Bath Street,Glasgow,G2 4JN,-4.268745,55.865112,,,,,
Kinning Perk,8 Harvie Street,Glasgow,G51 1BW,-4.289387,55.852767,,,,,
Kirstie Birr,22 Parkbrae Avenue,Glasgow,G20 9PH,-4.265767,55.889712,,,,,
Knife And Fork Cafe,460 Duke Street,Glasgow,G31 1QN,-4.215535,55.85829,,,,,
Koh I Noor,225 North Street,Glasgow,G3 7DL,-4.272258,55.866153,,,,,
Konaki,922 Sauchiehall Street,Glasgow,G3 7TF,-4.284479,55.865774,,,,,
Kool Ba,109 Candleriggs,Glasgow,G1 1NP,-4.2458,55.858838,,,,,
Kushion,158 Bath Street,Glasgow,G2 4TB,-4.260932,55.864609,,,,,
La Bodega,1120 South Street,Glasgow,G14 0AP,-4.354441,55.876947,,,,,
La Catering (The Pod),1 Lonmay Road,Glasgow,G33 4EL,-4.145026,55.865687,,,,,
La Famiglia,109 Cleveden Road,Glasgow,G12 0JU,-4.307365,55.888651,,,,,
La Fiorentina,2 Paisley Road West,Glasgow,G51 1LE,-4.279751,55.853836,,,,,
La Lanterna,35 Hope Street,Glasgow,G2 6AE,-4.259536,55.859557,,,,,
La Parmigana,449 Great Western Road,Glasgow,G12 8HH,-4.280988,55.874934,,,,,
La Riviera,147 Dumbarton Road,Glasgow,G11 6PT,-4.300132,55.87047,,,,,
La Rotunda,28 Tunnel Street,Glasgow,G3 8HL,-4.283461,55.859322,,,,,
La Tasca,39 Renfield Street,Glasgow,G2 1JS,-4.257098,55.861875,,,,,
La Tasca,763 Barrhead Road,Glasgow,G53 6AG,-4.342073,55.822898,,,,,
La Vallee Blanche,360 Byres Road,Glasgow,G12 8AR,-4.290518,55.877408,,,,,
La Vita Pizzeria,161 Queen Street,Glasgow,G1 3BJ,-4.252121,55.860663,,,,,
Lady Emily Cakes,49 Westland Drive,Glasgow,G14 9PE,-4.337305,55.879917,,,,,
Lamora,1170 Argyle Street,Glasgow,G3 8TE,-4.28642,55.865621,,,,,
Langside Cafe,33 Langside Place,Glasgow,G41 3DL,-4.272459,55.826901,,,,,
Lansdowne Restaurant,7 Lansdowne Crescent,Glasgow,G20 6NQ,-4.276185,55.874538,,,,,
Las Iguanas,18 West Nile Street,Glasgow,G1 2PW,-4.254967,55.860962,,,,,
Lazarette Cafe,150 Pointhouse Place,Glasgow,G3 8RS,-4.268697,55.86017,,,,,
Le Bistro Beaumartin,161 Hope Street,Glasgow,G2 2UQ,-4.258531,55.862334,,,,,
Leonardo And Co,283 Sauchiehall Street,Glasgow,G2 3HQ,-4.263947,55.865326,,,,,
Light Bite,17 Sinclair Drive,Glasgow,G42 9PR,-4.266867,55.826564,,,,,
Lily's,103 Ingram Street,Glasgow,G1 1DX,-4.245656,55.859397,,,,,
Linda's Lunchbox,420 Old Shettleston Road,Glasgow,G32 7JZ,-4.16989,55.852417,,,,,
Lindens Catering,226 South Street,Glasgow,G11 6JY,-4.328072,55.870987,,,,,
Little Botanica,741 Pollokshaws Road,Glasgow,G41 2AA,-4.270716,55.835902,,,,,
Little Italy,205 Byres Road,Glasgow,G12 8TN,-4.29507,55.874348,,,,,
Little Roma Cafe,16 Norby Road,Glasgow,G11 7BN,-4.323825,55.876145,,,,,
Little SoHo Jordanhill Bar Pizzeria,512 Crow Road,Glasgow,G13 1NU,-4.325679,55.883894,,,,,
Living Room,150 St Vincent Street,Glasgow,G2 5NE,-4.258872,55.861888,,,,,
Locavore,66 Nithsdale Road,Glasgow,G41 2AN,-4.271241,55.836953,,,,,
Loch Fyne Shellfish Bar,192 London Road,Glasgow,G40 1PB,-4.238478,55.854064,,,,,
Lodge Knightswood No.1445,40 Priory Road,Glasgow,G13 2SZ,-4.337332,55.894988,,,,,
Log Cabin Restaurant,32 Bredisholm Road,Glasgow,G69 7HL,-4.10582,55.850295,,,,,
Lola And Livvy's,245 Argyle Street,Glasgow,G2 8DL,-4.258365,55.858383,,,,,
London Road Social Club,1524 London Road,Glasgow,G31 4QA,-4.194612,55.844591,,,,,
Loon Fung,417 Sauchiehall Street,Glasgow,G2 3LG,-4.269064,55.865924,,,,,
Lord Hope Cafe,139 St James Road,Glasgow,G4 0LY,-4.255641,55.866893,,,,,
Lord Todd Amenity Centre,11 Weaver Street,Glasgow,G4 0RD,-4.238014,55.863222,,,,,
Lucky 7,166 Bath Street,Glasgow,G2 4TB,-4.260932,55.864609,,,,,
Luigi's,1044 Pollokshaws Road,Glasgow,G41 3EB,-4.279512,55.831471,,,,,
Luv Cafe,1121 Govan Road,Glasgow,G51 4RX,-4.329605,55.864011,,,,,
Lychee Oriental,59 Mitchell Street,Glasgow,G1 3LN,-4.256295,55.859338,,,,,
Mabel Mckinlay Tearoom (Glasgow Royal Infirmary),16 Alexandra Parade,Glasgow,G31 2ER,-4.232265,55.865249,,,,,
Mac Snacks,95 Spiersbridge Lane,Glasgow,G46 8AJ,-4.326339,55.801896,,,,,
MacPhees,2234 Paisley Road West,Glasgow,G52 3SJ,-4.358337,55.846018,,,,,
MacPhee's Sandwich Bar And Deli,1288 Paisley Road West,Glasgow,G52 1DB,-4.324414,55.84776,,,,,
Mac's Cafe,45 Harland Street,Glasgow,G14 0AT,-4.349091,55.87651,,,,,
Maggie May,60 Trongate,Glasgow,G1 5EP,-4.245757,55.857275,,,,,
Maggie's Cosy Cottage,29 Buchanan Street,Glasgow,G69 6DY,-4.11148,55.850962,,,,,
Magic Bean Sports Cafe,10 Dougrie Road,Glasgow,G45 9AH,-4.236396,55.806136,,,,,
Magic Grill,1341 Dumbarton Road,Glasgow,G14 9UZ,-4.343177,55.875742,,,,,
Malaga Tapas,213 St Andrews Road,Glasgow,G41 1PD,-4.274624,55.845663,,,,,
Mama's Rasoi,82 Howard Street,Glasgow,G1 4EE,-4.254687,55.856401,,,,,
Mamma Mia,14 Castlemilk Arcade,Glasgow,G45 9AA,-4.235119,55.806689,,,,,
Manhattan's Bar and Diner,231 St Andrews Road,Glasgow,G41 1PD,-4.274624,55.845663,,,,,
Mansion House,20 Glassford Street,Glasgow,,-4.24909007,55.85818028,,,,,
Marions Coffee Shop,254 Gallowgate,Glasgow,G4 0TS,-4.236938,55.855063,,,,,
Martha's,142 St Vincent Street,Glasgow,G2 5LA,-4.25852,55.861876,,,,,
Masala Twist,194 Byres Road,Glasgow,G12 8SN,-4.293818,55.874803,,,,,
Masala Twist,261 Hope Street,Glasgow,G2 3PS,-4.257465,55.864906,,,,,
Massimo,57 Elmbank Street,Glasgow,G2 4PQ,-4.268436,55.865576,,,,,
Master Sun's Hotpot,87 Cambridge Street,Glasgow,G3 6RU,-4.259871,55.866965,,,,,
McCune Smith,3 Duke Street,Glasgow,G4 0UL,-4.238776,55.86035,,,,,
McDonalds,47 Castlemilk Arcade,Glasgow,G45 9UB,-4.233907,55.805867,1,,,,
McDonalds,10 Westhorn Drive,Glasgow,G32 8YX,-4.169764,55.835838,1,1,American,Fast Food,
McDonalds,101 Sauchiehall Street,Glasgow,G2 3DD,-4.256815,55.864442,1,1,American,Fast Food,
McDonalds,1325 Springburn Road,Glasgow,G21 1UU,-4.232683,55.89286,1,1,American,Fast Food,
McDonalds,17 Monument Drive,Glasgow,G33 1AD,-4.186996,55.890984,1,1,American,Fast Food,
McDonalds,30 Crow Road,Glasgow,G11 7RY,-4.312117,55.872286,1,1,American,Fast Food,
McDonalds,1200 Maryhill Road,Glasgow,G20 9BA,-4.284475,55.886939,1,1,American,Fast Food,
McDonalds,800 Westerhouse Road,Glasgow,G34 9PE,-4.119997,55.86888,1,1,American,Fast Food,
McDonalds,3 Darnley Mains Road,Glasgow,G53 7RH,-4.340714,55.805056,1,1,American,Fast Food,
McDonalds,209 Argyle Street,Glasgow,G1 4QD,-4.257719,55.857981,1,1,American,Fast Food,
McDonald's,530 Helen Street,Glasgow,G51 3HR,-4.32041,55.852671,1,1,American,Fast Food,
McDonalds Bakers,71 Union Street,Glasgow,G1 3TA,-4.257374,55.860297,1,1,American,Fast Food,
McDonalds Bakers,140 Sauchiehall Street,Glasgow,G2 3DH,-4.258023,55.865157,1,1,American,Fast Food,
McDonalds Restaurant,1300 Duke Street,Glasgow,G31 4EB,-4.199841,55.853449,1,1,American,Fast Food,
McDonalds Restaurants Ltd,1841 Great Western Road,Glasgow,G13 2UX,-4.329529,55.891307,1,1,American,Fast Food,
Meat Bar,142 West Regent Street,Glasgow,G2 2RQ,-4.259858,55.86373,3,3,American,Scottish,
Mediterraneo,159 Ingram Street,Glasgow,G1 1DW,-4.247372,55.85951,4,3,Italian,Pub/Bar,Pizza
Mercado,17 Bell Street,Glasgow,G1 1NU,-4.245371,55.858333,2,2,Pub/Bar,,
Metropolitan,5 Candleriggs,Glasgow,,-4.245728,55.858291,4,3,Pub/Bar,,
Mia Roma,302 Sauchiehall Street,Glasgow,G2 3JA,-4.263684,55.865763,2,3,Italian,,
Mings,48 Buchanan Street,Glasgow,G1 3JN,-4.253456,55.859156,3,3,Oriental,,
Mitchells,107 Waterside Road,Glasgow,G76 9DU,-4.23462,55.79159,4,4,Scottish,Seafood,
Mother India,28 Westminster Terrace,Glasgow,G3 7RU,-4.283345,55.865256,2,3,Indian,,
Mr India,11 Hyndland Street,Glasgow,G11 5QE,-4.30288,55.871255,2,3,Indian,,
Mr Singh's India,149 Elderslie Street,Glasgow,G3 7AW,-4.276005,55.865724,3,3,Scottish,Indian,
Mussel Inn,157 Hope Street,Glasgow,G2 2UQ,-4.258531,55.862334,2,2,Seafood,,
N Y Slice,369 Sauchiehall Street,Glasgow,G2 3HU,-4.267293,55.865696,2,2,American,Pizza,
Nachos Mexican Restaurant,15 Skirving Street,Glasgow,G41 3AB,-4.280532,55.829798,2,2,Exotic,,
Nanakusa,441 Sauchiehall Street,Glasgow,G2 3LG,-4.269064,55.865924,4,3,Oriental,,
Nandos,763 Barrhead Road,Glasgow,,-4.242509842,55.85779953,3,2,European,,
Nando's,53 St Enoch Square,Glasgow,G1 4DH,-4.255956,55.857349,3,2,European,,
Nando's,263 Sauchiehall Street,Glasgow,G2 3EZ,-4.262562,55.865145,3,2,European,,
Nando's,3 Springfield Quay,Glasgow,G5 8NP,-4.274804,55.855303,3,2,European,,
Nando's Chickenland Ltd,725 Provan Walk,Glasgow,G34 9DY,-4.138074,55.871218,3,2,European,,
Nardini's,215 Byres Road,Glasgow,G12 8UD,-4.294404,55.87499,3,3,Italian,,
Neelim,1590 Dumbarton Road,Glasgow,G14 9DB,-4.352911,55.880194,1,2,Indian,,
New Anand Restaurant,76 Nithsdale Road,Glasgow,G41 2AN,-4.271241,55.836953,2,3,Oriental,,
New City Palace,92 Sauchiehall Street,Glasgow,G2 3DE,-4.256359,55.864846,2,3,Oriental,,
New Pearl Of India,1019 Cathcart Road,Glasgow,G42 9XJ,-4.259091,55.827659,3,3,Indian,,
Nick's Italian Kitchen Bar and Grill3,168 Hyndland Road,Glasgow,G12 9HZ,-4.306379,55.876348,3,3,Italian,,
Nippon Kitchen,91 West George Street,Glasgow,G2 1PB,-4.255654,55.862055,4,4,Oriental,,
No16,16 Byres Road,Glasgow,G11 5JY,-4.298849,55.870674,4,3,Scottish,,
Nur Restaurant,22 Bridge Street,Glasgow,G5 9HR,-4.25881,55.853935,4,4,Exotic,,
O Sole Mio,36 Bath Street,Glasgow,G2 1HE,-4.259844,55.861438,3,4,Italian,Pizza,
Oko Express,80 Queen Street,Glasgow,G1 3DN,-4.25159,55.859487,2,3,Oriental,Seafood,
Old Salty's,1126 Argyle Street,Glasgow,G3 8TD,-4.284857,55.865138,3,3,Chip Shop,,
One Ten Bar And Grill/Marks Hotel Kitchen,114 Bath Street,Glasgow,G2 2EN,-4.258163,55.864264,4,3,Scottish,,
One Up/29@Royal Exchange Square,29 Royal Exchange Square,Glasgow,G1 3AJ,-4.252971,55.859875,2,2,Pub/Bar,American,
Opium,191 Hope Street,Glasgow,G2 2UL,-4.258109,55.863061,3,3,Oriental,,
Oran-Mor,731 Great Western Road,Glasgow,G12 8QX,-4.289157,55.87738,4,3,Pub/Bar,Scottish,
Oriental West,609 Great Western Road,Glasgow,G12 8HX,-4.285399,55.876263,2,2,Oriental,Fast Food,
Orion Way,3 Drumhead Place,Glasgow,G32 8EY,-4.174951,55.832052,2,2,Pub/Bar,,
Pancho Villa's,26 Bell Street,Glasgow,G1 1LG,-4.245398,55.857964,3,3,Vegetarian/Vegan,Exotic,Pub/Bar
Panda,3 Springfield Quay,Glasgow,G5 8NP,-4.274804,55.855303,2,2,Oriental,,
Panevino,1075 Argyle Street,Glasgow,G3 8LZ,-4.2832,55.864144,3,3,Italian,,
Papa Tony's,4 Springfield Quay,Glasgow,G5 8NP,-4.274804,55.855303,4,4,Italian,,
Paradise (Persian) Restaurant,411 Great Western Road,Glasgow,G4 9JA,-4.278692,55.874221,3,3,Exotic,,
Pelican Bar-Bistro,1377 Argyle Street,Glasgow,G3 8AF,-4.29177,55.867723,3,4,Scottish,Seafood,
Piazza Italia,15 John Street,Glasgow,G1 1HP,-4.248133,55.860233,3,3,Italian,Pizza,
Piccolo Mondo,344 Argyle Street,Glasgow,G2 8LY,-4.261711,55.859031,4,4,Scottish,,
Pinto,140 Queen Street,Glasgow,G1 3BX,-4.251413,55.860299,3,3,Exotic,,
Pizza Express,20 Provan Walk,Glasgow,G34 9DL,-4.136909,55.872982,2,2,Pizza,,
Pizza Express,151 Queen Street,Glasgow,G1 3BJ,-4.252121,55.860663,2,2,Pizza,,
Pizza Express,436 Sauchiehall Street,Glasgow,G2 3JD,-4.26621,55.86604,2,2,Pizza,,
Pizza Express,48 Buchanan Street,Glasgow,G1 3JN,-4.253456,55.859156,2,2,Pizza,,
Pizza Hut,380 Helen Street,Glasgow,G51 3AD,-4.319128,55.853684,2,2,Pizza,,
Pizza Hut,881 Gallowgate,Glasgow,G31 4BW,-4.212689,55.85489,2,2,Pizza,,
Pizza Hut,2 Allerdyce Court,Glasgow,G15 6SA,-4.376618,55.902864,2,2,Pizza,,
Pizza Hut,735 Provan Walk,Glasgow,G34 9DY,-4.138074,55.871218,2,2,Pizza,,
Pizza Hut,85 West George Street,Glasgow,G2 1QG,-4.254805,55.862016,2,2,Pizza,,
Pizza Hut,763 Barrhead Road,Glasgow,G53 6AG,-4.342073,55.822898,2,2,Pizza,,
Pizza Hut (uk) Ltd,203 Argyle Street,Glasgow,G2 8BU,-4.256445,55.858068,2,2,Pizza,,
Prezzo,35 St Vincent Place,Glasgow,G1 2ER,-4.25373,55.86085,2,3,Italian,,
Prezzo,30 Provan Walk,Glasgow,G34 9DL,-4.136909,55.872982,3,3,Italian,,
Prezzo,763 Barrhead Road,Glasgow,G53 6AG,-4.342073,55.822898,3,3,Italian,,
Pulcinella,167 Hope Street,Glasgow,G2 2UQ,-4.258531,55.862334,3,3,Italian,,
Qua,68 Ingram Street,Glasgow,G1 1EX,-4.243602,55.859525,3,3,Italian,Pizza,
Rawalpindi,321 Sauchiehall Street,Glasgow,G2 3HW,-4.265169,55.865457,2,2,Indian,,
Red Onion,257 West Campbell Street,Glasgow,G2 4SQ,-4.261148,55.864192,3,3,Scottish,,
Restaurant Bar And Grill,48 Buchanan Street,Glasgow,G1 3JN,-4.253456,55.859156,5,5,Scottish,,
Rhubarb,122 Nithsdale Road,Glasgow,G41 5RB,-4.275057,55.83913,3,4,Scottish,,
Rishi's Indian Aroma,61 Bath Street,Glasgow,G2 2DG,-4.256948,55.863694,2,2,Indian,,
Roastit Bubbly Jock,450 Dumbarton Road,Glasgow,G11 6SE,-4.311576,55.870984,3,3,Scottish,,
Rock Lobster,35 Virginia Street,Glasgow,G1 1TN,-4.250545,55.858544,2,3,Italian,Seafood,
Roma Restaurant,46 Bath Street,Glasgow,,-4.25574678,55.86376405,3,2,Italian,,
Rowan Restaurant,2 Haghill Road,Glasgow,G31 3SR,-4.202495,55.858569,3,3,Pub/Bar,,
Rumour's,21 Bath Street,Glasgow,G2 1HY,-4.254032,55.863307,2,3,Oriental,,
Rustica,16 Grantlea Terrace,Glasgow,G32 9JN,-4.144555,55.846696,3,3,Pizza,,
Sapori D'Italia,1102 Cathcart Road,Glasgow,G42 9EG,-4.257464,55.825496,2,4,Italian,,
Sapporo Teppanyaki,6 Ingram Street,Glasgow,G1 1EZ,-4.242543,55.859445,3,3,Oriental,Seafood,
Sarti,133 Wellington Street,Glasgow,G2 2XD,-4.259517,55.863907,3,3,Italian,,
Sarti,121 Bath Street,Glasgow,G2 2SZ,-4.259457,55.863971,3,3,Italian,,
Seewoo Restaurant,29 Saracen Street,Glasgow,G22 5HT,-4.25528,55.879308,2,4,Exotic,Oriental,Seafood
Shanghai Shuffle,256 Bath Street,Glasgow,G2 4JW,-4.265885,55.86512,3,4,Indian,,
Shenaz,17 Granville Street,Glasgow,G3 7EE,-4.274049,55.865077,2,2,Indian,,
Shezan Restaurant,1098 Cathcart Road,Glasgow,G42 9XW,-4.258258,55.826524,2,2,Indian,,
Shilla,1138 Argyle Street,Glasgow,G3 8TD,-4.284857,55.865138,2,2,Oriental,,
Shimla Pinks,769 Pollokshaws Road,Glasgow,G41 2AX,-4.271722,55.835345,2,2,Indian,,
Shish Mahal Restaurant,68 Park Road,Glasgow,G4 9JF,-4.279412,55.87313,4,4,Indian,,
Singh's Little India,71 Kilmarnock Road,Glasgow,G41 3YR,-4.282917,55.828531,3,3,Indian,,
Singl-End,263 Renfrew Street,Glasgow,G3 6TT,-4.268176,55.866588,2,2,Italian,,
Snack Shack,Netherton Road,Glasgow,,-4.330985,55.898888,1,1,Chip Shop,,
Soho On Miller Street,86 Miller Street,Glasgow,G1 1DT,-4.250551,55.8592,3,3,Italian,Pizza,
Sparkle Horse,16 Dowanhill Street,Glasgow,G11 5QS,-4.300353,55.87123,2,2,Pub/Bar,,
Spice Fusion,224 Main Street,Glasgow,G69 6AG,-4.106486,55.851974,3,2,Indian,,
Spice Garden,11 Clyde Place,Glasgow,G5 8AA,-4.252818,55.845414,2,2,Indian,,
Spice Of Life,61 Kilmarnock Road,Glasgow,G41 3YR,-4.282917,55.828531,2,2,Indian,,
Spice Of The City,48 Oswald Street,Glasgow,,-4.25973192,55.85772,2,2,Indian,Fast Food,
Springfield Quay Harvester,6 Springfield Quay,Glasgow,G5 8NP,-4.274804,55.855303,3,3,Scottish,,
Spuntini,201 Byres Road,Glasgow,G12 8TN,-4.29507,55.874348,3,4,Italian,,
Square Yard,29 Stevenson Street,Glasgow,G40 2SS,-4.237649,55.854654,3,3,American,,
Steam Punk Cafe,18 Renfield Street,Glasgow,G2 5AA,-4.256092,55.861067,2,3,European,American,Pub/Bar
Stereo,28 Renfield Lane,Glasgow,,-4.25662816,55.86155176,2,2,Vegetarian/Vegan,,
Sticky Fingers,130 Blochairn Road,Glasgow,G21 2DU,-4.213723,55.869143,3,3,American,,
Strata,45 Queen Street,Glasgow,G1 3EF,-4.252808,55.858718,3,3,Pub/Bar,,
Stravaigin,30 Gibson Street,Glasgow,G12 8NX,-4.282193,55.872575,5,5,Pub/Bar,Scottish,
Sun City,836 Mosspark Drive,Glasgow,,-4.34387598,55.84143677,1,1,Oriental,Fast Food,
Sun Hei,526 Kilmarnock Road,Glasgow,G43 2BL,-4.291852,55.8135,1,1,Oriental,Fast Food,
Sweet and Spice,2 Inverlochy Crescent,Glasgow,G33 5ES,-4.161188,55.877654,1,1,Indian,Fast Food,
T.G.I. Friday,113 Buchanan Street,Glasgow,G1 3HF,-4.254819,55.860066,5,4,American,,
Taco Mazama,263 Byres Road,Glasgow,G12 8TL,-4.293342,55.875953,2,2,Exotic,Fast Food,
TGI Fridays,50 Provan Walk,Glasgow,G34 9DL,-4.136909,55.872982,5,4,American,,
Thai Fountain,27 Newton Place,Glasgow,G3 7PY,-4.273338,55.866582,3,3,Oriental,,
Thai Lemongrass,24 Renfrew Street,Glasgow,G2 3BW,-4.254791,55.865369,3,3,Oriental,,
Thai Orchid,336 Argyle Street,Glasgow,G2 8LY,-4.261711,55.859031,3,3,Oriental,,
Thai Siam Restaurant,1191 Argyle Street,Glasgow,G3 8TQ,-4.287011,55.865358,3,3,Oriental,,
Thairiffic,303 Sauchiehall Street,Glasgow,G2 3HQ,-4.263947,55.865326,3,3,Oriental,,
The Arches,253 Argyle Street,Glasgow,G2 8DL,-4.258365,55.858383,3,4,Pub/Bar,,
The Asmaan Restaurant,22 Bath Street,Glasgow,G2 1HB,-4.253975,55.863703,2,2,Indian,,
The Baby Grand,3 Elmbank Gardens,Glasgow,G2 4NQ,-4.270439,55.865108,3,3,Scottish,,
The Bank,443 Clarkston Road,Glasgow,G44 3LL,-4.270326,55.810583,2,2,Scottish,,
The Bean Bank,102 Main Street,Glasgow,G69 6AE,-4.109489,55.850484,1,2,Chip Shop,,
The Blue Chair,85 High Street,Glasgow,G1 1NB,-4.242655,55.858068,2,3,Scottish,American,
The Bothy,11 Ruthven Lane,Glasgow,G12 9BG,-4.295154,55.875506,4,4,Scottish,,
The Brooklyn Cafe,21 Minard Road,Glasgow,G41 2HR,-4.279491,55.83166,2,3,American,Italian,
The Butchers Shop,1055 Sauchiehall Street,Glasgow,G3 7UD,-4.289369,55.86686,4,4,Scottish,,
The Butterfly And The Pig,2 Partick Bridge Street,Glasgow,G11 6PL,-4.299887,55.869846,3,3,Scottish,,
The Calabash,57 Union Street,Glasgow,G1 3RB,-4.257325,55.859184,3,3,Exotic,,
The Chinese Kitchen,140 Sauchiehall Street,Glasgow,G2 3DH,-4.258023,55.865157,2,2,Oriental,,
The Chip Shop,1 Scottish Exhibition Centre,Glasgow,G3 8YW,-4.288154,55.86087,2,1,Chip Shop,,
The Copper Pot,424 Paisley Road West,Glasgow,G51 1BE,-4.297558,55.851788,2,1,Chip Shop,,
The Corinthian,191 Ingram Street,Glasgow,G1 1DQ,-4.250462,55.859606,5,5,Scottish,Pub/Bar,
The Dhabba,44 Candleriggs,Glasgow,G1 1LD,-4.245418,55.857757,3,3,Indian,,
The Ferry,Anderston Quay,Glasgow,,-4.272767,55.856774,3,4,Scottish,,
The Flying Haggis,176 Saracen Street,Glasgow,G22 5EP,-4.253988,55.882666,1,2,Scottish,American,
The Gannet,1155 Argyle Street,Glasgow,G3 8TB,-4.285222,55.864816,5,4,Scottish,,
The Glasgow Curry Shop,21 Ashton Lane,Glasgow,G12 8SJ,-4.292992,55.87463,2,2,Indian,,
The Greek Golden Kebab Rest.,34 Sinclair Drive,Glasgow,G42 9QE,-4.267575,55.82638,2,3,European,,
The Grill On The Corner,23 Bothwell Street,Glasgow,G2 6NL,-4.259995,55.86086,4,4,Scottish,,
The Hanoi Bike Shop,8 Ruthven Lane,Glasgow,G12 9BG,-4.295154,55.875506,2,3,Oriental,,
The Hill,94 Byres Road,Glasgow,G12 8TB,-4.295826,55.873085,3,3,European,,
The Italian Caffee Enoteca,92 Albion Street,Glasgow,G1 1NY,-4.243579,55.858573,3,3,Italian,,
The Leven Valley,7 Allerdyce Court,Glasgow,,-4.376204,55.902954,2,3,Pub/Bar,,
The Manchurian,494 Dumbarton Road,Glasgow,G11 6SL,-4.313494,55.870984,2,3,Oriental,Seafood,
The Melting Pot,1206 Shettleston Road,Glasgow,G32 7PG,-4.165839,55.851401,1,1,American,,
The Monkey Bar,100 Bath Street,Glasgow,G2 2EN,-4.258163,55.864264,2,2,American,,
The New York Kitchen,562 Dumbarton Road,Glasgow,G11 6RH,-4.31597,55.870955,3,3,American,,
The Pines,210 Crookston Road,Glasgow,G52 3NF,-4.365228,55.840331,2,2,Pub/Bar,,
The Plum Tree,6 Wilson Street,Glasgow,G1 1SS,-4.24667,55.858687,3,2,Scottish,,
The Rogano,11 Exchange Place,Glasgow,G1 3AN,-4.253746,55.860022,5,5,Scottish,,
The Sisters Kelvingrove,36 Kelvingrove Street,Glasgow,G3 7RZ,-4.283588,55.865844,5,5,Scottish,,
The Sisters Restaurant,1 Ashwood Gardens,Glasgow,G13 1NU,-4.325679,55.883894,5,5,Scottish,,
The Wee Curry Shop,41 Byres Road,Glasgow,G11 5RG,-4.298699,55.871387,3,4,Indian,Scottish,
The Western Club,32 Royal Exchange Square,Glasgow,G1 3AB,-4.252561,55.86052,5,4,European,Scottish,
Tibo,443 Duke Street,Glasgow,G31 2LD,-4.221018,55.858883,3,3,Scottish,,
Tickled Trout,878 Boclair Road,Glasgow,G62 6EP,-4.286158,55.926417,3,3,Scottish,Pub/Bar,
Tiffany's,33 Glassford Street,Glasgow,G1 1UG,-4.249347,55.858566,4,3,Scottish,,
Tiki Bar And Kitsch Inn,214 Bath Street,Glasgow,,-4.26368412,55.86469403,3,3,Exotic,,
Tinto Tapas Bar,138 Battlefield Road,Glasgow,G42 9JT,-4.265146,55.826083,2,3,European,Vegetarian/Vegan,
Tivoli Restaurant,39 Stockwell Street,Glasgow,G1 4RZ,-4.249198,55.856816,1,2,Chip Shop,,
Toni Macaroni,10 Byres Road,Glasgow,G11 5JY,-4.298849,55.870674,2,3,Italian,,
Tony Macaroni,17 John Street,Glasgow,,-4.24776116,55.86029304,2,3,Italian,,
Tony Macaroni,133 West George Street,Glasgow,G2 2JJ,-4.257551,55.862244,2,3,Italian,,
Tony Macaroni Too,142 Dumbarton Road,Glasgow,G11 6XE,-4.29999,55.870769,2,3,Italian,,
Torres Restaurant,327 Sauchiehall Street,Glasgow,G2 3HW,-4.265169,55.865457,2,2,European,,
Trans Euro Cafe,25 Parnie Street,Glasgow,G1 5RJ,-4.245404,55.85614,3,2,Scottish,,
Trattoria Gia,17 King Street,Glasgow,G1 5QZ,-4.246222,55.856745,2,2,Italian,,
Tribeca,102 Dumbarton Road,Glasgow,G11 6NX,-4.297868,55.870297,4,3,Exotic,,
Tropeiro,363 Argyle Street,Glasgow,G2 8LT,-4.263572,55.85862,4,3,Exotic,,
Two Fat Ladies,118 Blythswood Street,Glasgow,G2 4EG,-4.261981,55.863961,5,4,Scottish,,
Two Fat Ladies,88 Dumbarton Road,Glasgow,G11 6NX,-4.297868,55.870297,5,4,Scottish,,
Two Fat Ladies (Buttery) Ltd,654 Argyle Street,Glasgow,G3 8UF,-4.27229,55.860688,5,4,Scottish,,
Ubiquitous Chip,26 Ashton Lane,Glasgow,G12 8SJ,-4.292992,55.87463,4,4,Scottish,,
Una Storia,35 Ashton Lane,Glasgow,G12 8SJ,-4.292992,55.87463,3,3,Italian,,
University Cafe,87 Byres Road,Glasgow,G11 5HN,-4.297794,55.872033,1,1,Scottish,,
Up On The Hill,2 Eagle Street,Glasgow,G4 9XA,-4.254236,55.875652,2,2,Italian,American,
Urban Bar And Brasserie,25 St Vincent Place,Glasgow,G1 2DT,-4.253106,55.860825,5,4,American,Italian,Scottish
Velvet Appetite,69 West Nile Street,Glasgow,G1 2QB,-4.255136,55.862487,3,3,American,,
Verona,88 West Regent Street,Glasgow,G2 2TU,-4.257352,55.863506,3,4,Italian,,
Villa Toscana,1080 Argyle Street,Glasgow,G3 8LY,-4.283491,55.864741,3,3,Italian,,
Village Curry House,129 Nelson Street,Glasgow,,-4.261463,55.85304,2,3,Indian,,
Viva,75 Bothwell Street,Glasgow,G2 6TS,-4.261475,55.861031,3,3,Italian,,
Viva Brazil,87 Bothwell Street,Glasgow,,-4.2620194,55.86133182,4,3,Exotic,,
Vodka Wodka,31 Ashton Lane,Glasgow,G12 8SJ,-4.292992,55.87463,2,2,Italian,American,
Wagamama,97 West George Street,Glasgow,G2 1PB,-4.255654,55.862055,3,3,Oriental,,
Wagamama,763 Barrhead Road,Glasgow,G53 6AG,-4.342073,55.822898,3,3,Oriental,,
Wee Curry Shop,7 Buccleuch Street,Glasgow,G3 6SJ,-4.260136,55.86714,3,4,Indian,Scottish,
Wee Lochan,340 Crow Road,Glasgow,G11 7HT,-4.32221,55.878009,4,3,Scottish,,
West Bar,15 Binnie Place,Glasgow,G40 1AW,-4.234176,55.8515,2,2,Pub/Bar,,
Willow Tea Rooms,97 Buchanan Street,Glasgow,G1 3HF,-4.254819,55.860066,2,3,Scottish,,
Windows Restaurant,44 West George Street,Glasgow,,-4.25322682,55.86195588,3,4,European,,
Wishbones,31 High Street,Glasgow,G1 1LX,-4.243279,55.857527,2,1,American,,
Wok To Walk,304 Sauchiehall Street,Glasgow,G2 3JA,-4.263684,55.865763,1,2,Oriental,Fast Food,
Wong Express,920 Maryhill Road,Glasgow,G20 7TA,-4.280196,55.884044,3,3,Oriental,,
Wudon,535 Great Western Road,Glasgow,G12 8HN,-4.282973,55.875517,2,3,Seafood,Oriental,
Yarrows Cafe,1915 Dumbarton Road,Glasgow,G14 0YS,-4.364388,55.882769,1,1,Chip Shop,,
Yellow Bird Cafe,39 Paisley Road West,Glasgow,G51 1LG,-4.28068,55.853325,1,1,Chip Shop,,
Yen,28 Tunnel Street,Glasgow,G3 8HL,-4.283461,55.859322,3,3,Oriental,,
Yo Sushi,21 Buchanan Street,Glasgow,G1 3HL,-4.254903,55.859309,2,2,Seafood,,
Yo! Sushi,763 Barrhead Road,Glasgow,G53 6AG,-4.342073,55.822898,2,2,Seafood,,
Zebra Cafe,34 Queen Street,Glasgow,G1 3DX,-4.251911,55.858681,3,3,Pub/Bar,,
Zizzi,31 Royal Exchange Square,Glasgow,G1 3AJ,-4.252971,55.859875,3,4,Italian,,
Zizzi,8 Cresswell Lane,Glasgow,G12 8AA,-4.292252,55.875911,3,4,Italian,,
Zizzi,48 Buchanan Street,Glasgow,,-4.25452799,55.859396,3,4,Italian,,
Zorba,25 High Street,Glasgow,G1 1LX,-4.243279,55.857527,2,3,European,,
